[{"OBJECT_NAME":"STARLINK-32627","OBJECT_ID":"2024-239Q","EPOCH":"2026-03-09T15:33:04.804128","MEAN_MOTION":15.30188683,"ECCENTRICITY":0.0001034,"INCLINATION":53.1585,"RA_OF_ASC_NODE":194.3422,"ARG_OF_PERICENTER":84.6982,"MEAN_ANOMALY":275.4137,"EPHEMERIS_TYPE":0,"CLASSIFICATION_TYPE":"U","NORAD_CAT_ID":62315,"ELEMENT_SET_NO":999,"REV_AT_EPOCH":6937,"BSTAR":0.00062111,"MEAN_MOTION_DOT":0.00018075,"MEAN_MOTION_DDOT":0},{"OBJECT_NAME":"TRANSPORTER-12 OBJECT AZ","OBJECT_ID":"2025-009AZ","EPOCH":"2026-03-09T17:02:46.667040","MEAN_MOTION":15.30349724,"ECCENTRICITY":9.87e-5,"INCLINATION":97.3981,"RA_OF_ASC_NODE":151.9913,"ARG_OF_PERICENTER":45.3581,"MEAN_ANOMALY":314.774,"EPHEMERIS_TYPE":0,"CLASSIFICATION_TYPE":"U","NORAD_CAT_ID":62656,"ELEMENT_SET_NO":999,"REV_AT_EPOCH":6379,"BSTAR":0.00054902545,"MEAN_MOTION_DOT":0.00016057,"MEAN_MOTION_DDOT":0}]
